start=new Date('2022-06-06T00:00:00.000Z').valueOf();
sats=[{"EPHEMERIS_TYPE":"0","MEAN_MOTION_DOT":"0.00000697","NORAD_CAT_ID":"47747","BSTAR":"0.00006568200000","PERIAPSIS":"546.053","OBJECT_ID":"2021-017AB","MEAN_ANOMALY":"302.7193","SEMIMAJOR_AXIS":"6925.337","INCLINATION":"53.0543","TLE_LINE2":"2 47747  53.0543 245.8676 0001659  57.3956 302.7193 15.06403920 70939","TLE_LINE1":"1 47747U 21017AB  22156.55295940  .00000697  00000-0  65682-4 0  9998","MEAN_MOTION":"15.06403920","MEAN_ELEMENT_THEORY":"SGP4","DECAY_DATE":null,"LAUNCH_DATE":"2021-03-04","REF_FRAME":"TEME","PERIOD":"95.592","MEAN_MOTION_DDOT":"0.0000000000000","REV_AT_EPOCH":"7093","FILE":"3482995","RCS_SIZE":"LARGE","SITE":"AFETR","TIME_SYSTEM":"UTC","CLASSIFICATION_TYPE":"U","OBJECT_NAME":"STARLINK-2161","OBJECT_TYPE":"PAYLOAD","RA_OF_ASC_NODE":"245.8676","COUNTRY_CODE":"US","CENTER_NAME":"EARTH","ARG_OF_PERICENTER":"57.3956","EPOCH":"2022-06-05T13:16:15.692160","ELEMENT_SET_NO":"999","GP_ID":"205446921","APOAPSIS":"548.350","ECCENTRICITY":"0.00016590"},{"NORAD_CAT_ID":"47748","BSTAR":"-0.00007726600000","EPHEMERIS_TYPE":"0","MEAN_MOTION_DOT":"-0.00001432","SEMIMAJOR_AXIS":"6925.363","MEAN_ANOMALY":"308.0274","PERIAPSIS":"545.965","OBJECT_ID":"2021-017AC","DECAY_DATE":null,"MEAN_MOTION":"15.06395305","TLE_LINE1":"1 47748U 21017AC  22156.61193473 -.00001432  00000-0 -77266-4 0  9995","MEAN_ELEMENT_THEORY":"SGP4","INCLINATION":"53.0541","TLE_LINE2":"2 47748  53.0541 245.6073 0001824  52.0880 308.0274 15.06395305 70913","FILE":"3482995","RCS_SIZE":"LARGE","MEAN_MOTION_DDOT":"0.0000000000000","REV_AT_EPOCH":"7091","PERIOD":"95.592","LAUNCH_DATE":"2021-03-04","REF_FRAME":"TEME","OBJECT_NAME":"STARLINK-2162","OBJECT_TYPE":"PAYLOAD","RA_OF_ASC_NODE":"245.6073","CLASSIFICATION_TYPE":"U","TIME_SYSTEM":"UTC","SITE":"AFETR","ARG_OF_PERICENTER":"52.0880","CENTER_NAME":"EARTH","COUNTRY_CODE":"US","EPOCH":"2022-06-05T14:41:11.160672","ECCENTRICITY":"0.00018240","APOAPSIS":"548.491","GP_ID":"205445670","ELEMENT_SET_NO":"999"},{"EPOCH":"2022-06-05T15:02:25.370592","GP_ID":"205445920","ECCENTRICITY":"0.00014890","APOAPSIS":"548.274","ELEMENT_SET_NO":"999","CLASSIFICATION_TYPE":"U","RA_OF_ASC_NODE":"245.5439","OBJECT_TYPE":"PAYLOAD","OBJECT_NAME":"STARLINK-2163","SITE":"AFETR","TIME_SYSTEM":"UTC","ARG_OF_PERICENTER":"69.2562","COUNTRY_CODE":"US","CENTER_NAME":"EARTH","MEAN_ELEMENT_THEORY":"SGP4","TLE_LINE1":"1 47749U 21017AD  22156.62668253 -.00001192  00000-0 -61147-4 0  9994","MEAN_MOTION":"15.06390343","DECAY_DATE":null,"TLE_LINE2":"2 47749  53.0545 245.5439 0001489  69.2562 290.8586 15.06390343 70918","INCLINATION":"53.0545","MEAN_MOTION_DDOT":"0.0000000000000","REV_AT_EPOCH":"7091","RCS_SIZE":"MEDIUM","FILE":"3482995","REF_FRAME":"TEME","LAUNCH_DATE":"2021-03-04","PERIOD":"95.593","MEAN_MOTION_DOT":"-0.00001192","EPHEMERIS_TYPE":"0","BSTAR":"-0.00006114700000","NORAD_CAT_ID":"47749","MEAN_ANOMALY":"290.8586","SEMIMAJOR_AXIS":"6925.378","OBJECT_ID":"2021-017AD","PERIAPSIS":"546.212"},{"TLE_LINE2":"2 47750  53.0531 245.0508 0001667  50.2836 309.8300 15.06395025 70938","INCLINATION":"53.0531","MEAN_ELEMENT_THEORY":"SGP4","TLE_LINE1":"1 47750U 21017AE  22156.73726128 -.00000568  00000-0 -19244-4 0  9991","MEAN_MOTION":"15.06395025","DECAY_DATE":null,"REF_FRAME":"TEME","LAUNCH_DATE":"2021-03-04","PERIOD":"95.592","MEAN_MOTION_DDOT":"0.0000000000000","REV_AT_EPOCH":"7093","RCS_SIZE":"LARGE","FILE":"3482995","MEAN_MOTION_DOT":"-0.00000568","EPHEMERIS_TYPE":"0","BSTAR":"-0.00001924400000","NORAD_CAT_ID":"47750","OBJECT_ID":"2021-017AE","PERIAPSIS":"546.074","MEAN_ANOMALY":"309.8300","SEMIMAJOR_AXIS":"6925.364","EPOCH":"2022-06-05T17:41:39.374592","ELEMENT_SET_NO":"999","GP_ID":"205446172","ECCENTRICITY":"0.00016670","APOAPSIS":"548.383","SITE":"AFETR","TIME_SYSTEM":"UTC","CLASSIFICATION_TYPE":"U","RA_OF_ASC_NODE":"245.0508","OBJECT_TYPE":"PAYLOAD","OBJECT_NAME":"STARLINK-2164","COUNTRY_CODE":"US","CENTER_NAME":"EARTH","ARG_OF_PERICENTER":"50.2836"},{"EPOCH":"2022-06-05T15:14:21.177312","GP_ID":"205446422","ECCENTRICITY":"0.00016250","APOAPSIS":"548.383","ELEMENT_SET_NO":"999","CLASSIFICATION_TYPE":"U","OBJECT_NAME":"STARLINK-2168","OBJECT_TYPE":"PAYLOAD","RA_OF_ASC_NODE":"235.4926","SITE":"AFETR","TIME_SYSTEM":"UTC","ARG_OF_PERICENTER":"45.6175","COUNTRY_CODE":"US","CENTER_NAME":"EARTH","MEAN_MOTION":"15.06385699","TLE_LINE1":"1 47751U 21017AF  22156.63496733  .00003316  00000-0  24153-3 0  9993","MEAN_ELEMENT_THEORY":"SGP4","DECAY_DATE":null,"INCLINATION":"53.0564","TLE_LINE2":"2 47751  53.0564 235.4926 0001625  45.6175 314.4947 15.06385699 71060","REV_AT_EPOCH":"7106","MEAN_MOTION_DDOT":"0.0000000000000","FILE":"3482995","RCS_SIZE":"MEDIUM","LAUNCH_DATE":"2021-03-04","REF_FRAME":"TEME","PERIOD":"95.593","MEAN_MOTION_DOT":"0.00003316","EPHEMERIS_TYPE":"0","NORAD_CAT_ID":"47751","BSTAR":"0.00024153000000","MEAN_ANOMALY":"314.4947","SEMIMAJOR_AXIS":"6925.392","PERIAPSIS":"546.132","OBJECT_ID":"2021-017AF"},{"DECAY_DATE":null,"TLE_LINE1":"1 47752U 21017AG  22156.66859795  .00000166  00000-0  30046-4 0  9997","MEAN_MOTION":"15.06405939","MEAN_ELEMENT_THEORY":"SGP4","INCLINATION":"53.0545","TLE_LINE2":"2 47752  53.0545 250.3544 0001590  56.8485 303.2656 15.06405939 70906","FILE":"3482995","RCS_SIZE":"MEDIUM","REV_AT_EPOCH":"7090","MEAN_MOTION_DDOT":"0.0000000000000","PERIOD":"95.592","LAUNCH_DATE":"2021-03-04","REF_FRAME":"TEME","NORAD_CAT_ID":"47752","BSTAR":"0.00003004600000","MEAN_MOTION_DOT":"0.00000166","EPHEMERIS_TYPE":"0","SEMIMAJOR_AXIS":"6925.330","MEAN_ANOMALY":"303.2656","OBJECT_ID":"2021-017AG","PERIAPSIS":"546.094","EPOCH":"2022-06-05T16:02:46.862880","ECCENTRICITY":"0.00015900","APOAPSIS":"548.296","GP_ID":"205445171","ELEMENT_SET_NO":"999","OBJECT_NAME":"STARLINK-2169","RA_OF_ASC_NODE":"250.3544","OBJECT_TYPE":"PAYLOAD","CLASSIFICATION_TYPE":"U","TIME_SYSTEM":"UTC","SITE":"AFETR","ARG_OF_PERICENTER":"56.8485","CENTER_NAME":"EARTH","COUNTRY_CODE":"US"},{"EPOCH":"2022-06-05T15:27:37.717920","GP_ID":"205445421","ECCENTRICITY":"0.00014220","APOAPSIS":"548.182","ELEMENT_SET_NO":"999","CLASSIFICATION_TYPE":"U","OBJECT_NAME":"STARLINK-2170","OBJECT_TYPE":"PAYLOAD","RA_OF_ASC_NODE":"255.4696","SITE":"AFETR","TIME_SYSTEM":"UTC","ARG_OF_PERICENTER":"64.4288","COUNTRY_CODE":"US","CENTER_NAME":"EARTH","TLE_LINE1":"1 47753U 21017AH  22156.64418655  .00000486  00000-0  51509-4 0  9994","MEAN_MOTION":"15.06405465","MEAN_ELEMENT_THEORY":"SGP4","DECAY_DATE":null,"INCLINATION":"53.0548","TLE_LINE2":"2 47753  53.0548 255.4696 0001422  64.4288 295.6848 15.06405465 70826","REV_AT_EPOCH":"7082","MEAN_MOTION_DDOT":"0.0000000000000","FILE":"3482995","RCS_SIZE":"LARGE","LAUNCH_DATE":"2021-03-04","REF_FRAME":"TEME","PERIOD":"95.592","MEAN_MOTION_DOT":"0.00000486","EPHEMERIS_TYPE":"0","NORAD_CAT_ID":"47753","BSTAR":"0.00005150900000","MEAN_ANOMALY":"295.6848","SEMIMAJOR_AXIS":"6925.332","PERIAPSIS":"546.212","OBJECT_ID":"2021-017AH"},{"TIME_SYSTEM":"UTC","SITE":"AFETR","OBJECT_TYPE":"PAYLOAD","RA_OF_ASC_NODE":"255.3096","OBJECT_NAME":"STARLINK-2171","CLASSIFICATION_TYPE":"U","CENTER_NAME":"EARTH","COUNTRY_CODE":"US","ARG_OF_PERICENTER":"60.5413","EPOCH":"2022-06-05T16:20:41.643456","ELEMENT_SET_NO":"999","ECCENTRICITY":"0.00017850","APOAPSIS":"548.426","GP_ID":"205446671","BSTAR":"0.00006392200000","NORAD_CAT_ID":"47754","EPHEMERIS_TYPE":"0","MEAN_MOTION_DOT":"0.00000671","OBJECT_ID":"2021-017AJ","PERIAPSIS":"545.953","SEMIMAJOR_AXIS":"6925.324","MEAN_ANOMALY":"299.5754","TLE_LINE2":"2 47754  53.0558 255.3096 0001785  60.5413 299.5754 15.06407905 70796","INCLINATION":"53.0558","DECAY_DATE":null,"MEAN_ELEMENT_THEORY":"SGP4","TLE_LINE1":"1 47754U 21017AJ  22156.68103754  .00000671  00000-0  63922-4 0  9998","MEAN_MOTION":"15.06407905","PERIOD":"95.592","REF_FRAME":"TEME","LAUNCH_DATE":"2021-03-04","RCS_SIZE":"LARGE","FILE":"3482995","REV_AT_EPOCH":"7079","MEAN_MOTION_DDOT":"0.0000000000000"},{"SEMIMAJOR_AXIS":"6925.379","MEAN_ANOMALY":"298.9643","PERIAPSIS":"546.224","OBJECT_ID":"2021-017AL","BSTAR":"0.00005597100000","NORAD_CAT_ID":"47756","EPHEMERIS_TYPE":"0","MEAN_MOTION_DOT":"0.00000552","RCS_SIZE":"LARGE","FILE":"3482995","MEAN_MOTION_DDOT":"0.0000000000000","REV_AT_EPOCH":"7083","PERIOD":"95.593","REF_FRAME":"TEME","LAUNCH_DATE":"2021-03-04","DECAY_DATE":null,"MEAN_ELEMENT_THEORY":"SGP4","TLE_LINE1":"1 47756U 21017AL  22156.67737056  .00000552  00000-0  55971-4 0  9990","MEAN_MOTION":"15.06389978","TLE_LINE2":"2 47756  53.0546 255.3199 0001473  61.1494 298.9643 15.06389978 70833","INCLINATION":"53.0546","ARG_OF_PERICENTER":"61.1494","CENTER_NAME":"EARTH","COUNTRY_CODE":"US","RA_OF_ASC_NODE":"255.3199","OBJECT_TYPE":"PAYLOAD","OBJECT_NAME":"STARLINK-2174","CLASSIFICATION_TYPE":"U","TIME_SYSTEM":"UTC","SITE":"AFETR","APOAPSIS":"548.264","ECCENTRICITY":"0.00014730","GP_ID":"205446922","ELEMENT_SET_NO":"999","EPOCH":"2022-06-05T16:15:24.816384"},{"COUNTRY_CODE":"US","CENTER_NAME":"EARTH","ARG_OF_PERICENTER":"55.3275","SITE":"AFETR","TIME_SYSTEM":"UTC","CLASSIFICATION_TYPE":"U","OBJECT_TYPE":"PAYLOAD","RA_OF_ASC_NODE":"255.6847","OBJECT_NAME":"STARLINK-2175","ELEMENT_SET_NO":"999","GP_ID":"205445671","ECCENTRICITY":"0.00017230","APOAPSIS":"548.412","EPOCH":"2022-06-05T14:18:38.280960","PERIAPSIS":"546.025","OBJECT_ID":"2021-017AM","MEAN_ANOMALY":"304.7876","SEMIMAJOR_AXIS":"6925.353","MEAN_MOTION_DOT":"0.00000247","EPHEMERIS_TYPE":"0","BSTAR":"0.00003550900000","NORAD_CAT_ID":"47757","REF_FRAME":"TEME","LAUNCH_DATE":"2021-03-04","PERIOD":"95.592","MEAN_MOTION_DDOT":"0.0000000000000","REV_AT_EPOCH":"7076","RCS_SIZE":"LARGE","FILE":"3482995","TLE_LINE2":"2 47757  53.0542 255.6847 0001723  55.3275 304.7876 15.06398452 70766","INCLINATION":"53.0542","MEAN_ELEMENT_THEORY":"SGP4","TLE_LINE1":"1 47757U 21017AM  22156.59627640  .00000247  00000-0  35509-4 0  9995","MEAN_MOTION":"15.06398452","DECAY_DATE":null}];
